[{"OBJECT_NAME":"STARLINK-5681","OBJECT_ID":"2023-015W","EPOCH":"2026-03-09T22:00:01.999584","MEAN_MOTION":15.03925616,"ECCENTRICITY":8.484e-5,"INCLINATION":43.0013,"RA_OF_ASC_NODE":324.6279,"ARG_OF_PERICENTER":316.9401,"MEAN_ANOMALY":259.5723,"EPHEMERIS_TYPE":0,"CLASSIFICATION_TYPE":"U","NORAD_CAT_ID":55469,"ELEMENT_SET_NO":999,"REV_AT_EPOCH":577,"BSTAR":0.0013891013,"MEAN_MOTION_DOT":0.00019319,"MEAN_MOTION_DDOT":0},{"OBJECT_NAME":"CZ-6A DEB","OBJECT_ID":"2022-151VS","EPOCH":"2026-03-09T04:51:15.060960","MEAN_MOTION":14.9137966,"ECCENTRICITY":0.00559122,"INCLINATION":98.6335,"RA_OF_ASC_NODE":146.9052,"ARG_OF_PERICENTER":180.6585,"MEAN_ANOMALY":179.4567,"EPHEMERIS_TYPE":0,"CLASSIFICATION_TYPE":"U","NORAD_CAT_ID":55201,"ELEMENT_SET_NO":999,"REV_AT_EPOCH":17149,"BSTAR":0.0042126159,"MEAN_MOTION_DOT":0.00043496,"MEAN_MOTION_DDOT":0}]
